{
  "norad_id": 61862,
  "name": "STARLINK-32393",
  "history": [
    {
      "epoch": "2026-03-28T19:50:20.892480",
      "apogee_km": 483.2621844592195,
      "perigee_km": 482.85696218959947,
      "latitude_deg": -32.80625382751128,
      "longitude_deg": 85.55654719984159,
      "semi_major_axis_km": 6861.19657332441,
      "eccentricity": 2.953e-05,
      "inclination_deg": 43.0026,
      "raan_deg": 129.9797,
      "arg_perigee_deg": 279.2994,
      "mean_anomaly_deg": 80.7824,
      "mean_motion_rev_day": 15.27576501
    },
    {
      "epoch": "2026-03-29T02:06:58.262976",
      "apogee_km": 483.3116195641278,
      "perigee_km": 482.80526334054866,
      "latitude_deg": -7.501199432778954,
      "longitude_deg": 110.66473663994111,
      "semi_major_axis_km": 6861.195441452338,
      "eccentricity": 3.69e-05,
      "inclination_deg": 43.0023,
      "raan_deg": 128.5016,
      "arg_perigee_deg": 263.3923,
      "mean_anomaly_deg": 96.6887,
      "mean_motion_rev_day": 15.27576879
    }
  ]
}